{
    "links": {
        "self": "http://www.neowsapp.com/rest/v1/neo/3442524?api_key=iIulBulltgU6a56xZRHN4H3l9WmuAYTsLGpBGhQ2"
    },
    "id": "3442524",
    "neo_reference_id": "3442524",
    "name": "(2008 YM27)",
    "designation": "2008 YM27",
    "nasa_jpl_url": "http://ssd.jpl.nasa.gov/sbdb.cgi?sstr=3442524",
    "absolute_magnitude_h": 23.4,
    "estimated_diameter": {
        "kilometers": {
            "estimated_diameter_min": 0.0555334912,
            "estimated_diameter_max": 0.1241766613
        },
        "meters": {
            "estimated_diameter_min": 55.5334911581,
            "estimated_diameter_max": 124.1766612574
        },
        "miles": {
            "estimated_diameter_min": 0.0345069009,
            "estimated_diameter_max": 0.0771597762
        },
        "feet": {
            "estimated_diameter_min": 182.1964991311,
            "estimated_diameter_max": 407.4037573197
        }
    },
    "is_potentially_hazardous_asteroid": false,
    "close_approach_data": [
        {
            "close_approach_date": "1919-08-20",
            "close_approach_date_full": "1919-Aug-20 03:46",
            "epoch_date_close_approach": -1589487240000,
            "relative_velocity": {
                "kilometers_per_second": "16.858452644",
                "kilometers_per_hour": "60690.4295182805",
                "miles_per_hour": "37710.6727192893"
            },
            "miss_distance": {
                "astronomical": "0.351911508",
                "lunar": "136.893576612",
                "kilometers": "52645212.02528796",
                "miles": "32712217.866815448"
            },
            "orbiting_body": "Earth"
        },
        {
            "close_approach_date": "1922-01-16",
            "close_approach_date_full": "1922-Jan-16 20:54",
            "epoch_date_close_approach": -1513393560000,
            "relative_velocity": {
                "kilometers_per_second": "26.1214849378",
                "kilometers_per_hour": "94037.3457761718",
                "miles_per_hour": "58431.1496574219"
            },
            "miss_distance": {
                "astronomical": "0.4897658098",
                "lunar": "190.5189000122",
                "kilometers": "73267921.944905126",
                "miles": "45526575.6012016988"
            },
            "orbiting_body": "Earth"
        },
        {
            "close_approach_date": "2008-12-24",
            "close_approach_date_full": "2008-Dec-24 02:45",
            "epoch_date_close_approach": 1230086700000,
            "relative_velocity": {
                "kilometers_per_second": "14.3606169817",
                "kilometers_per_hour": "51698.2211342244",
                "miles_per_hour": "32123.2641264296"
            },
            "miss_distance": {
                "astronomical": "0.0493474872",
                "lunar": "19.1961725208",
                "kilometers": "7382278.974972264",
                "miles": "4587135.4467506832"
            },
            "orbiting_body": "Earth"
        }
    ],
    "orbital_data": {
        "orbit_id": "11",
        "orbit_determination_date": "2017-04-06 09:01:51",
        "first_observation_date": "2008-12-29",
        "last_observation_date": "2009-01-16",
        "data_arc_in_days": 18,
        "observations_used": 33,
        "orbit_uncertainty": "7",
        "minimum_orbit_intersection": ".0421776",
        "jupiter_tisserand_invariant": "4.060",
        "epoch_osculation": "2459000.5",
        "eccentricity": ".4608598278558313",
        "semi_major_axis": "1.678421866320974",
        "inclination": "17.77788946221801",
        "ascending_node_longitude": "275.9949822103365",
        "orbital_period": "794.2370092467727",
        "perihelion_distance": ".9049046539388266",
        "perihelion_argument": "125.765244209134",
        "aphelion_distance": "2.451939078703121",
        "perihelion_time": "2458758.696236544156",
        "mean_anomaly": "109.6012321645129",
        "mean_motion": ".4532652039740779",
        "equinox": "J2000",
        "orbit_class": {
            "orbit_class_type": "APO",
            "orbit_class_description": "Near-Earth asteroid orbits which cross the Earth’s orbit similar to that of 1862 Apollo",
            "orbit_class_range": "a (semi-major axis) > 1.0 AU; q (perihelion) < 1.017 AU"
        }
    },
    "is_sentry_object": false
}